P/2012 O1 (McNaught),e,7.4280,91.9402,238.2805,3.543230,0.1477764,0.59356774,332.0532,04/26.0/2025,2000,g 17.5,4.0
# From MPC 80899
P/2012 O2 (McNaught),e,24.4556,120.6621,183.4137,3.629895,0.1425158,0.53122485,311.4697,04/26.0/2025,2000,g 17.0,4.0
# From MPC 82320
P/2012 T2 (PANSTARRS),e,12.5700,73.8772,311.1727,5.717671,0.0720900,0.16212734,314.2243,04/26.0/2025,2000,g 10.0,4.0
# From MPC 80900
P/2012 T3 (PANSTARRS),e,9.5538,114.3263,195.4709,6.158161,0.0644952,0.61559830,306.0851,04/26.0/2025,2000,g 15.0,4.0
# From MPC 82720
P/2012 U2 (PANSTARRS),e,10.7585,185.2771,228.4368,7.125889,0.0518138,0.50050852,234.8888,04/26.0/2025,2000,g 12.5,4.0
# From MPC 82721
P/2013 AL76 (Catalina),e,144.9121,146.0887,27.1114,6.500569,0.0594671,0.68553903,269.3705,04/26.0/2025,2000,g 16.0,4.0
# From MPC 91612
P/2013 G1 (Kowalski),e,5.4571,221.3167,51.3770,6.906734,0.0542994,0.50992983,226.4554,04/26.0/2025,2000,g 11.0,4.0
# From MPC 84025
P/2013 G4 (PANSTARRS),e,5.9201,339.5876,214.5214,4.432808,0.1056053,0.40935715,110.0305,04/26.0/2025,2000,g 15.0,4.0
# From MPC 91613
P/2013 J2 (McNaught),e,15.5004,289.2918,37.8621,6.229075,0.0633970,0.65589133,270.1201,04/26.0/2025,2000,g 13.0,4.0
# From MPC 86229
P/2013 N3 (PANSTARRS),e,2.1674,17.5894,323.8884,7.405330,0.0489088,0.59098585,200.0372,04/26.0/2025,2000,g 13.0,4.0
# From MPC 85834
P/2013 N5 (PANSTARRS),e,23.4149,187.1609,176.9604,6.799114,0.0555937,0.73152919,239.5086,04/26.0/2025,2000,g 17.0,4.0
# From MPC 85834
P/2013 P1 (PANSTARRS),e,18.6882,160.6991,138.1362,8.592421,0.0391319,0.60249555,174.2063,04/26.0/2025,2000,g 12.0,4.0
# From MPEC 2022-V95
P/2013 R3 (Catalina-PANSTARRS),e,0.8650,341.8445,11.5022,3.034135,0.1864883,0.27686791,74.8076,04/26.0/2025,2000,g 14.0,4.0
# From unp
P/2013 R3-A (Catalina-PANSTARRS),e,0.8641,341.7989,11.5802,3.033880,0.1865119,0.27680085,74.8872,04/26.0/2025,2000,g  9.0,4.0
# From MPEC 2015-M77
P/2013 R3-B (Catalina-PANSTARRS),e,0.8654,341.8553,11.5155,3.034107,0.1864909,0.27684399,74.8044,04/26.0/2025,2000,g  9.0,4.0
# From MPC 85835
P/2013 T1 (PANSTARRS),e,24.2706,10.0870,346.1746,5.855124,0.0695665,0.62360137,297.3935,04/26.0/2025,2000,g 16.5,4.0
# From MPC 86643
P/2013 T2 (Schwartz),e,9.4470,0.8076,345.5665,3.493600,0.1509365,0.50020911,297.9064,04/26.0/2025,2000,g 16.0,4.0
# From MPC 91613
P/2013 W1 (PANSTARRS),e,4.6999,117.8351,1.2428,3.484959,0.1514982,0.59381341,255.6280,04/26.0/2025,2000,g 17.5,4.0
# From MPC101095
P/2013 YG46 (Spacewatch),e,7.6195,47.5595,243.7904,3.267918,0.1668389,0.46741073,138.5521,04/26.0/2025,2000,g 10.0,4.0
# From MPC 89728
P/2014 A2 (Hill),e,24.5636,106.6565,356.1965,5.921592,0.0683985,0.64667296,287.9652,04/26.0/2025,2000,g 15.0,4.0
# From MPEC 2024-F34
P/2014 C1 (TOTAS),e,3.2149,39.8875,188.2896,4.022386,0.1221739,0.34295062,217.8276,04/26.0/2025,2000,g 15.5,4.0
# From MPEC 2022-WD2
C/2014 F3 (Sheppard-Trujillo),e,6.5210,325.9778,5.1335,14.39386,0.0180484,0.60187309,25.7964,04/26.0/2025,2000,g  6.0,4.0
# From MPC 98560
P/2014 L2 (NEOWISE),e,5.1909,149.3390,182.6945,6.311893,0.0621534,0.64624279,244.6244,04/26.0/2025,2000,g 12.0,4.0
# From MPC 90769
P/2014 L3 (Hill),e,6.2542,115.5301,178.6601,8.183834,0.0420987,0.77108890,166.7654,04/26.0/2025,2000,g 16.0,4.0
# From MPC 91614
P/2014 M4 (PANSTARRS),e,3.3471,263.1999,148.1244,5.863003,0.0694263,0.59602433,261.2139,04/26.0/2025,2000,g 15.0,4.0
# From MPC 98560
P/2014 O3 (PANSTARRS),e,7.7890,87.6244,204.6731,7.587200,0.0471609,0.38244709,190.5302,04/26.0/2025,2000,g 10.5,4.0
# From MPC182878
C/2014 OG392 (PANSTARRS),e,9.0324,145.8260,255.2792,12.25665,0.0229692,0.18548743,27.7623,04/26.0/2025,2000,g  6.0,4.0
# From MPC 91616
P/2014 U4 (PANSTARRS),e,6.4225,11.9271,347.8445,3.512125,0.1497439,0.46376865,229.5964,04/26.0/2025,2000,g 18.0,4.0
# From MPEC 2025-HB5
C/2014 UN271 (Bernardinelli-Bernstein),h,01/16.4250/2031,95.4438,189.9568,326.0795,1.004170,10.960216,2000,2.5,3.2
# From MPC 95211
P/2014 V1 (PANSTARRS),e,22.5003,166.1833,177.6512,5.481304,0.0768030,0.53343906,287.3783,04/26.0/2025,2000,g 14.0,4.0
# From MPC105542
P/2014 W4 (PANSTARRS),e,15.2837,33.3086,67.7341,6.579781,0.0583965,0.35509171,198.3108,04/26.0/2025,2000,g 11.0,4.0
# From MPC 94281
P/2014 X1 (Elenin),e,26.0495,61.5467,33.9468,6.198328,0.0638693,0.71089168,240.1835,04/26.0/2025,2000,g 15.0,4.0
# From MPC 92275
P/2015 A3 (PANSTARRS),e,172.5513,277.4852,249.6623,7.816715,0.0450991,0.85078616,167.5430,04/26.0/2025,2000,g 20.0,4.0
# From MPC 99270
P/2015 B1 (PANSTARRS),e,18.0868,352.8517,188.6732,9.474319,0.0337973,0.36685607,118.9538,04/26.0/2025,2000,g  8.5,4.0
# From MPC109141
P/2015 B4 (Lemmon-PANSTARRS),e,1.7676,266.1360,227.0975,8.504780,0.0397383,0.56255293,148.1940,04/26.0/2025,2000,g 11.0,4.0
# From MPC101096
P/2015 C1 (TOTAS-Gibbs),e,13.9112,348.7652,178.0258,6.548403,0.0588167,0.56749143,214.4177,04/26.0/2025,2000,g 12.5,4.0
# From MPC109141
P/2015 D5 (Kowalski),e,20.5518,74.0880,39.6215,8.944252,0.0368458,0.49185901,148.6327,04/26.0/2025,2000,g  9.0,4.0
# From MPEC 2024-R10
P/2015 D6 (Lemmon-PANSTARRS),e,20.2956,45.4121,125.8806,7.119613,0.0518823,0.36257334,185.9860,04/26.0/2025,2000,g 10.5,4.0
# From MPC 95213
P/2015 K5 (PANSTARRS),e,39.9262,134.3088,106.1054,6.728018,0.0564772,0.55157080,204.7901,04/26.0/2025,2000,g 13.5,4.0
# From MPC107684
P/2015 M2 (PANSTARRS),e,3.9678,86.6988,225.7668,7.255084,0.0504360,0.17770443,177.7904,04/26.0/2025,2000,g  8.5,4.0
# From MPC 99819
P/2015 P4 (PANSTARRS),e,8.7221,104.6770,280.7414,6.048313,0.0662602,0.58509063,223.8104,04/26.0/2025,2000,g 14.0,4.0
# From MPEC 2022-K19
P/2015 PD229 (Cameron-ISON),e,2.0203,342.7484,352.6887,7.206921,0.0509424,0.32516758,180.6902,04/26.0/2025,2000,g 11.5,2.0
# From MPC 96867
P/2015 Q2 (Pimentel),e,146.5513,228.5323,244.6498,7.348470,0.0494776,0.75218559,173.8074,04/26.0/2025,2000,g 15.5,4.0
# From MPC 98562
P/2015 R1 (PANSTARRS),e,22.6823,48.3893,300.5167,5.884594,0.0690445,0.63294432,247.7627,04/26.0/2025,2000,g 14.0,4.0
# From MPC 95734
P/2015 R2 (PANSTARRS),e,15.4826,168.6021,149.8740,4.479897,0.1039446,0.45200645,13.6464,04/26.0/2025,2000,g 14.5,4.0
# From MPC102953
P/2015 TO19 (Lemmon-PANSTARRS),e,6.5056,321.6617,89.3373,4.546220,0.1016783,0.35959240,338.4933,04/26.0/2025,2000,g 14.0,4.0
# From MPC110080
P/2015 TP200 (LINEAR),e,8.7786,6.9120,82.5863,7.262458,0.0503592,0.53736154,155.8979,04/26.0/2025,2000,g 11.0,4.0
# From MPC101098
P/2015 W2 (Catalina),e,11.6203,294.0744,117.7094,7.293448,0.0500386,0.63526524,174.5083,04/26.0/2025,2000,g 13.0,4.0
# From MPEC 2023-J29
P/2015 X3 (PANSTARRS),e,24.4224,77.2553,306.9719,4.997863,0.0882120,0.43987051,311.8704,04/26.0/2025,2000,g 15.0,4.0
# From MPC115881
P/2015 X6 (PANSTARRS),e,4.5657,106.9311,329.7422,2.752832,0.2157916,0.17404430,356.6593,04/26.0/2025,2000,g 16.0,4.0
# From MPEC 2022-OB6
P/2016 A3 (PANSTARRS),e,8.5207,187.1337,340.8001,7.867705,0.0446614,0.38703718,130.4803,04/26.0/2025,2000,g 10.0,4.0
# From MPC102098
P/2016 A7 (PANSTARRS),e,16.3273,220.7839,352.7090,5.064178,0.0864850,0.56965507,294.0941,04/26.0/2025,2000,g 16.0,4.0
# From MPEC 2021-P47
P/2016 G1 (PANSTARRS),e,10.9699,204.0111,111.0872,2.583804,0.2373093,0.21005022,355.2195,04/26.0/2025,2000,g 14.0,4.0
# From MPEC 2024-C04
C/2016 J2 (Denneau),h,04/12.8494/2016,130.3702,186.2885,318.2745,1.000377,1.496265,2000,17.0,4.0
# From MPC102099
P/2016 P1 (PANSTARRS),e,24.4335,319.0566,270.9953,3.203862,0.1718674,0.28742160,243.3383,04/26.0/2025,2000,g 15.0,4.0
# From MPEC 2025-F40
P/2016 P5 (COIAS),e,7.0378,185.3784,33.9019,4.700424,0.0967161,0.05728298,68.1341,04/26.0/2025,2000,g 13.2,4.0
# From MPEC 2024-H50
C/2016 Q2 (PANSTARRS),h,05/11.7179/2021,109.3287,322.3482,84.5304,1.002502,7.079931,2000,6.0,4.0
# From MPEC 2022-K19
P/2016 R4 (Gibbs),e,10.8643,168.2683,174.1042,5.337497,0.0799277,0.47478068,255.8181,04/26.0/2025,2000,g 12.5,4.0
# From MPC105543
P/2016 S1 (PANSTARRS),e,94.7330,227.6481,273.1622,8.266591,0.0414681,0.71201723,122.6858,04/26.0/2025,2000,g 12.0,4.0
# From MPC106345
P/2016 WM48 (Lemmon),e,117.6216,59.9471,36.1808,8.173617,0.0421777,0.78412499,125.6745,04/26.0/2025,2000,g 15.0,4.0
# From MPEC 2021-P47
C/2016 X1 (Lemmon),e,26.4696,256.3007,224.6049,2612,0.0000074,0.99710591,0.0000,04/30.6081/2019,2000,g  6.0,4.0
# From MPEC 2022-OB6
C/2017 B3 (LINEAR),e,54.2193,2.2410,284.7695,3478,0.0000048,0.99886922,0.0000,01/30.1796/2019,2000,g  6.0,4.0
# From MPC103847
P/2017 B4 (PANSTARRS),e,20.0584,121.4578,11.0197,4.410520,0.1064068,0.36495152,359.9130,01/05.0/2017,2000,g 14.5,4.0
# From MPEC 2022-OB6
P/2017 D1 (Fuls),e,20.7714,82.1937,8.0751,4.822358,0.0930711,0.43781420,299.9751,04/26.0/2025,2000,g 14.0,4.0
# From MPEC 2022-OB6
P/2017 D4 (PANSTARRS),e,10.5614,264.9132,212.1306,7.542024,0.0475852,0.63059214,149.8695,04/26.0/2025,2000,g 13.0,4.0
# From MPEC 2025-H86
P/2017 FL36 (PANSTARRS),e,15.6871,313.4526,90.1738,2.926655,0.1968551,0.03268771,339.4327,04/26.0/2025,2000,g 14.7,4.0
# From MPEC 2024-C04
P/2017 G1 (PANSTARRS),e,5.1552,247.1382,225.2507,7.192418,0.0510966,0.65082345,168.2178,04/26.0/2025,2000,g 13.5,4.0
# From MPC108595
P/2017 G2 (PANSTARRS),e,47.9683,79.8975,105.2124,8.036046,0.0432654,0.64882920,124.4638,04/26.0/2025,2000,g 13.0,4.0
# From MPEC 2025-HB5
C/2017 K2 (PANSTARRS),e,87.6446,88.2218,236.1801,2106,0.0000102,0.99914558,0.0000,12/18.7044/2022,2000,g  1.5,4.0
# From MPEC 2021-N06
P/2017 K3 (Gasparovic),e,4.2724,354.2005,253.2889,5.586583,0.0746423,0.57911996,216.5014,04/26.0/2025,2000,g 14.5,4.0
# From MPEC 2021-P47
C/2017 K5 (PANSTARRS),h,03/25.6382/2020,82.2788,102.4565,171.9482,1.003034,7.678281,2000,5.0,4.0
# From MPEC 2022-OB6
C/2017 M4 (ATLAS),h,01/17.6716/2019,105.6261,66.0146,167.4218,1.000238,3.236768,2000,6.0,4.0
# From MPC114599
P/2017 P1 (PANSTARRS),e,7.6880,221.4691,122.7856,7.921159,0.0442100,0.30908406,110.6327,04/26.0/2025,2000,g 10.0,4.0
# From MPEC 2022-OB6
P/2017 S8 (PANSTARRS),e,29.8402,191.5108,254.9160,2.778664,0.2127894,0.39112732,202.8569,04/26.0/2025,2000,g 16.0,4.0
# From MPEC 2024-A43
